OBJECT_NAME,OBJECT_ID,EPOCH,MEAN_MOTION,ECCENTRICITY,INCLINATION,RA_OF_ASC_NODE,ARG_OF_PERICENTER,MEAN_ANOMALY,EPHEMERIS_TYPE,CLASSIFICATION_TYPE,NORAD_CAT_ID,ELEMENT_SET_NO,REV_AT_EPOCH,BSTAR,MEAN_MOTION_DOT,MEAN_MOTION_DDOT
STARLINK-35910,2025-303X,2026-07-18T14:49:58.512576,15.27584809,.00014168,42.9998,290.8928,274.0214,86.0476,0,U,67184,999,3276,.20994532E-3,.552E-4,0
STARLINK-35859,2025-303Y,2026-07-18T07:06:35.917056,15.27577748,.00013681,43.0003,292.7776,273.8056,86.2640,0,U,67185,999,3271,.20850974E-3,.548E-4,0
STARLINK-35857,2025-303Z,2026-07-18T07:28:48.132480,15.27579902,.00015247,43.0019,292.8937,264.2335,95.8343,0,U,67186,999,3271,.29508703E-3,.7867E-4,0
STARLINK-35880,2025-303AA,2026-07-18T13:34:19.722720,15.27583818,.00008845,43.0005,291.3573,268.4040,91.6710,0,U,67187,999,3275,.26268495E-3,.6974E-4,0
STARLINK-35675,2025-303AB,2026-07-18T13:14:12.750144,15.27581823,.00015543,43.0011,292.1139,283.7849,76.2830,0,U,67188,999,3274,.57579248E-3,.15617E-3,0
STARLINK-35889,2025-303AC,2026-07-18T14:39:05.092704,15.27587616,.00012785,43.0000,291.6968,265.2151,94.8554,0,U,67189,999,3275,.23402345E-3,.6185E-4,0
STARLINK-35888,2025-303AD,2026-07-18T14:24:17.019072,15.27587247,.00016059,42.9993,291.6209,263.7231,96.3437,0,U,67190,999,3275,.21826086E-3,.575E-4,0
STARLINK-35716,2025-303AE,2026-07-18T14:46:29.458272,15.27578338,.00013311,42.9982,291.7338,267.2936,92.7763,0,U,67191,999,3275,.18983778E-3,.4965E-4,0
STARLINK-36182,2025-304A,2026-07-18T06:23:04.864992,14.98326493,.00039039,70.0000,205.2336,264.5827,95.4886,0,U,67192,999,3341,.18223896E-3,.2082E-4,0
STARLINK-36279,2025-304B,2026-07-18T06:16:50.537856,14.98325017,.00039944,70.0003,205.2145,267.1017,92.9685,0,U,67193,999,3344,.20922066E-3,.2404E-4,0
STARLINK-36284,2025-304C,2026-07-18T09:59:09.161664,14.98330720,.0004205,69.9994,204.9547,265.8561,94.2117,0,U,67194,999,3346,.1850361E-3,.2116E-4,0
STARLINK-36291,2025-304D,2026-07-18T10:23:25.951200,14.98334581,.00039898,69.9994,205.0085,266.2333,93.8370,0,U,67195,999,3346,.16680152E-3,.1898E-4,0
STARLINK-36239,2025-304E,2026-07-18T07:04:54.855840,14.98335115,.00040754,69.9994,205.3354,264.5578,95.5116,0,U,67196,999,3344,.20548095E-3,.236E-4,0
STARLINK-36283,2025-304F,2026-07-18T07:28:55.879104,14.98340936,.0003883,69.9995,204.9869,268.5219,91.5495,0,U,67197,999,3345,.20030229E-3,.2298E-4,0
STARLINK-36267,2025-304G,2026-07-18T11:23:15.881568,14.98332663,.00039135,70.0002,204.7537,264.8573,95.2139,0,U,67198,999,3344,.13727912E-3,.1545E-4,0
STARLINK-36268,2025-304H,2026-07-18T06:47:07.266336,14.98333038,.00038277,69.9997,205.2867,267.3622,92.7099,0,U,67199,999,3343,.13310967E-3,.1496E-4,0
STARLINK-36270,2025-304J,2026-07-18T06:11:02.419296,14.98333769,.00030716,70.0020,205.2067,255.3137,104.7682,0,U,67200,999,3344,-.8037081E-5,-.189E-5,0
STARLINK-36262,2025-304K,2026-07-18T10:11:10.893696,14.98324078,.00044042,69.9998,204.9817,268.7279,91.3375,0,U,67201,999,3346,.18909947E-3,.2164E-4,0
STARLINK-36263,2025-304L,2026-07-18T09:53:09.809376,14.98327647,.00035576,69.9998,204.9368,269.8464,90.2288,0,U,67202,999,3346,.23868913E-3,.2756E-4,0
STARLINK-36224,2025-304M,2026-07-18T11:17:14.617248,14.98342378,.00038731,70.0004,204.7308,266.3694,93.7022,0,U,67203,999,3347,-.1872176E-3,-.2327E-4,0
STARLINK-36185,2025-304N,2026-07-18T10:53:12.477696,14.98342473,.00043662,69.9990,204.6768,270.7383,89.3276,0,U,67204,999,3347,.12288376E-3,.1374E-4,0
STARLINK-36197,2025-304P,2026-07-18T07:22:54.585408,14.98334638,.00038015,69.9994,204.9715,264.1856,95.8869,0,U,67205,999,3342,.19213848E-3,.2201E-4,0
STARLINK-36056,2025-304Q,2026-07-18T06:59:08.558592,14.98333582,.00040152,69.9995,205.3132,265.3145,94.7556,0,U,67206,999,3341,.15399386E-3,.1745E-4,0
STARLINK-36225,2025-304R,2026-07-18T09:47:22.003584,14.98333202,.00040809,69.9999,204.9165,263.8689,96.2006,0,U,67207,999,3346,.14468075E-3,.1634E-4,0
STARLINK-36265,2025-304S,2026-07-18T10:05:10.201344,14.98334200,.00033587,69.9996,204.9671,270.1065,89.9709,0,U,67208,999,3346,.19029635E-3,.2179E-4,0
STARLINK-36226,2025-304T,2026-07-18T10:23:11.773824,14.98337736,.00040286,69.9991,205.0111,265.4929,94.5770,0,U,67209,999,3346,.19696467E-3,.2258E-4,0
STARLINK-36173,2025-304U,2026-07-18T06:22:51.727008,14.98342955,.00032101,70.0002,205.2276,268.3139,91.7653,0,U,67210,999,3344,.18696373E-3,.2139E-4,0
STARLINK-36280,2025-304V,2026-07-18T10:59:13.175232,14.98335064,.00039324,70.0000,204.6943,267.0574,93.0135,0,U,67211,999,3347,.15740661E-3,.1786E-4,0
STARLINK-36213,2025-304W,2026-07-18T07:34:57.369792,14.98329375,.00038491,69.9998,204.9998,271.1626,88.9092,0,U,67212,999,3345,.29304923E-3,.3405E-4,0
STARLINK-36199,2025-304X,2026-07-18T10:29:10.200768,14.98333280,.00039096,69.9991,204.6199,263.2403,96.8311,0,U,67213,999,3347,.19093608E-3,.2186E-4,0
