STARLINK-35910          
1 67184U 25303X   26199.61803834  .00005520  00000+0  20995-3 0  9998
2 67184  42.9998 290.8928 0001416 274.0214  86.0476 15.27584809 32767
STARLINK-35859          
1 67185U 25303Y   26199.29624904  .00005480  00000+0  20851-3 0  9998
2 67185  43.0003 292.7776 0001368 273.8056  86.2640 15.27577748 32710
STARLINK-35857          
1 67186U 25303Z   26199.31166820  .00007867  00000+0  29509-3 0  9990
2 67186  43.0019 292.8937 0001524 264.2335  95.8343 15.27579902 32716
STARLINK-35880          
1 67187U 25303AA  26199.56550605  .00006974  00000+0  26268-3 0  9993
2 67187  43.0005 291.3573 0000884 268.4040  91.6710 15.27583818 32756
STARLINK-35675          
1 67188U 25303AB  26199.55153646  .00015617  00000+0  57579-3 0  9990
2 67188  43.0011 292.1139 0001554 283.7849  76.2830 15.27581823 32748
STARLINK-35889          
1 67189U 25303AC  26199.61047561  .00006185  00000+0  23402-3 0  9994
2 67189  43.0000 291.6968 0001278 265.2151  94.8554 15.27587616 32751
STARLINK-35888          
1 67190U 25303AD  26199.60019698  .00005750  00000+0  21826-3 0  9990
2 67190  42.9993 291.6209 0001605 263.7231  96.3437 15.27587247 32753
STARLINK-35716          
1 67191U 25303AE  26199.61561873  .00004965  00000+0  18984-3 0  9997
2 67191  42.9982 291.7338 0001331 267.2936  92.7763 15.27578338 32756
STARLINK-36182          
1 67192U 25304A   26199.26602853  .00002082  00000+0  18224-3 0  9999
2 67192  70.0000 205.2336 0003903 264.5827  95.4886 14.98326493 33414
STARLINK-36279          
1 67193U 25304B   26199.26169604  .00002404  00000+0  20922-3 0  9998
2 67193  70.0003 205.2145 0003994 267.1017  92.9685 14.98325017 33449
STARLINK-36284          
1 67194U 25304C   26199.41607826  .00002116  00000+0  18504-3 0  9992
2 67194  69.9994 204.9547 0004205 265.8561  94.2117 14.98330720 33467
STARLINK-36291          
1 67195U 25304D   26199.43293925  .00001898  00000+0  16680-3 0  9995
2 67195  69.9994 205.0085 0003989 266.2333  93.8370 14.98334581 33462
STARLINK-36239          
1 67196U 25304E   26199.29507935  .00002360  00000+0  20548-3 0  9992
2 67196  69.9994 205.3354 0004075 264.5578  95.5116 14.98335115 33443
STARLINK-36283          
1 67197U 25304F   26199.31175786  .00002298  00000+0  20030-3 0  9997
2 67197  69.9995 204.9869 0003883 268.5219  91.5495 14.98340936 33457
STARLINK-36267          
1 67198U 25304G   26199.47448937  .00001545  00000+0  13728-3 0  9996
2 67198  70.0002 204.7537 0003913 264.8573  95.2139 14.98332663 33449
STARLINK-36268          
1 67199U 25304H   26199.28272299  .00001496  00000+0  13311-3 0  9995
2 67199  69.9997 205.2867 0003827 267.3622  92.7099 14.98333038 33432
STARLINK-36270          
1 67200U 25304J   26199.25766689 -.00000189  00000+0 -80371-5 0  9998
2 67200  70.0020 205.2067 0003071 255.3137 104.7682 14.98333769 33440
STARLINK-36262          
1 67201U 25304K   26199.42443164  .00002164  00000+0  18910-3 0  9999
2 67201  69.9998 204.9817 0004404 268.7279  91.3375 14.98324078 33462
STARLINK-36263          
1 67202U 25304L   26199.41191909  .00002756  00000+0  23869-3 0  9992
2 67202  69.9998 204.9368 0003557 269.8464  90.2288 14.98327647 33466
STARLINK-36224          
1 67203U 25304M   26199.47030807 -.00002327  00000+0 -18722-3 0  9996
2 67203  70.0004 204.7308 0003873 266.3694  93.7022 14.98342378 33471
STARLINK-36185          
1 67204U 25304N   26199.45361664  .00001374  00000+0  12288-3 0  9993
2 67204  69.9990 204.6768 0004366 270.7383  89.3276 14.98342473 33472
STARLINK-36197          
1 67205U 25304P   26199.30757622  .00002201  00000+0  19214-3 0  9997
2 67205  69.9994 204.9715 0003801 264.1856  95.8869 14.98334638 33426
STARLINK-36056          
1 67206U 25304Q   26199.29107128  .00001745  00000+0  15399-3 0  9998
2 67206  69.9995 205.3132 0004015 265.3145  94.7556 14.98333582 33415
STARLINK-36225          
1 67207U 25304R   26199.40789356  .00001634  00000+0  14468-3 0  9994
2 67207  69.9999 204.9165 0004080 263.8689  96.2006 14.98333202 33460
STARLINK-36265          
1 67208U 25304S   26199.42025696  .00002179  00000+0  19030-3 0  9992
2 67208  69.9996 204.9671 0003358 270.1065  89.9709 14.98334200 33464
STARLINK-36226          
1 67209U 25304T   26199.43277516  .00002258  00000+0  19696-3 0  9990
2 67209  69.9991 205.0111 0004028 265.4929  94.5770 14.98337736 33469
STARLINK-36173          
1 67210U 25304U   26199.26587647  .00002139  00000+0  18696-3 0  9999
2 67210  70.0002 205.2276 0003210 268.3139  91.7653 14.98342955 33444
STARLINK-36280          
1 67211U 25304V   26199.45779138  .00001786  00000+0  15741-3 0  9994
2 67211  70.0000 204.6943 0003932 267.0574  93.0135 14.98335064 33473
STARLINK-36213          
1 67212U 25304W   26199.31594178  .00003405  00000+0  29305-3 0  9990
2 67212  69.9998 204.9998 0003849 271.1626  88.9092 14.98329375 33452
STARLINK-36199          
1 67213U 25304X   26199.43692362  .00002186  00000+0  19094-3 0  9997
2 67213  69.9991 204.6199 0003909 263.2403  96.8311 14.98333280 33472
